CCSDS_OMM_VERS = 2.0
CREATION_DATE  = 
ORIGINATOR     = 

OBJECT_NAME    = STARLINK-35687
OBJECT_ID      = 2025-265J
CENTER_NAME    = EARTH
REF_FRAME      = TEME
TIME_SYSTEM    = UTC
MEAN_ELEMENT_THEORY = SGP/SGP4

EPOCH          = 2025-12-10T12:00:02.998944
MEAN_MOTION    = 15.50578756
ECCENTRICITY   = .0001999
INCLINATION    = 42.9998
RA_OF_ASC_NODE = 67.0832
ARG_OF_PERICENTER = 285.8522
MEAN_ANOMALY   = 309.0987

EPHEMERIS_TYPE = 0
CLASSIFICATION_TYPE = U
NORAD_CAT_ID   = 66524
ELEMENT_SET_NO = 999
REV_AT_EPOCH   = 463
BSTAR          = -.40609E-2
MEAN_MOTION_DOT = -.231682E-2
MEAN_MOTION_DDOT = 0

CCSDS_OMM_VERS = 2.0
CREATION_DATE  = 
ORIGINATOR     = 

OBJECT_NAME    = STARLINK-35975
OBJECT_ID      = 2025-265K
CENTER_NAME    = EARTH
REF_FRAME      = TEME
TIME_SYSTEM    = UTC
MEAN_ELEMENT_THEORY = SGP/SGP4

EPOCH          = 2025-12-10T12:00:02.998944
MEAN_MOTION    = 15.50641484
ECCENTRICITY   = .0001372
INCLINATION    = 42.9995
RA_OF_ASC_NODE = 67.0781
ARG_OF_PERICENTER = 272.2219
MEAN_ANOMALY   = 324.6426

EPHEMERIS_TYPE = 0
CLASSIFICATION_TYPE = U
NORAD_CAT_ID   = 66525
ELEMENT_SET_NO = 999
REV_AT_EPOCH   = 463
BSTAR          = -.2702E-2
MEAN_MOTION_DOT = -.15608E-2
MEAN_MOTION_DDOT = 0

CCSDS_OMM_VERS = 2.0
CREATION_DATE  = 
ORIGINATOR     = 

OBJECT_NAME    = STARLINK-35932
OBJECT_ID      = 2025-265L
CENTER_NAME    = EARTH
REF_FRAME      = TEME
TIME_SYSTEM    = UTC
MEAN_ELEMENT_THEORY = SGP/SGP4

EPOCH          = 2025-12-10T12:00:02.998944
MEAN_MOTION    = 15.50709195
ECCENTRICITY   = .0001342
INCLINATION    = 42.9998
RA_OF_ASC_NODE = 67.0742
ARG_OF_PERICENTER = 274.3413
MEAN_ANOMALY   = 324.4312

EPHEMERIS_TYPE = 0
CLASSIFICATION_TYPE = U
NORAD_CAT_ID   = 66526
ELEMENT_SET_NO = 999
REV_AT_EPOCH   = 452
BSTAR          = -.48468E-2
MEAN_MOTION_DOT = -.27616E-2
MEAN_MOTION_DDOT = 0

CCSDS_OMM_VERS = 2.0
CREATION_DATE  = 
ORIGINATOR     = 

OBJECT_NAME    = STARLINK-35935
OBJECT_ID      = 2025-265M
CENTER_NAME    = EARTH
REF_FRAME      = TEME
TIME_SYSTEM    = UTC
MEAN_ELEMENT_THEORY = SGP/SGP4

EPOCH          = 2025-12-10T12:00:02.998944
MEAN_MOTION    = 15.50668860
ECCENTRICITY   = .0001265
INCLINATION    = 42.9995
RA_OF_ASC_NODE = 67.0697
ARG_OF_PERICENTER = 272.7018
MEAN_ANOMALY   = 327.9915

EPHEMERIS_TYPE = 0
CLASSIFICATION_TYPE = U
NORAD_CAT_ID   = 66527
ELEMENT_SET_NO = 999
REV_AT_EPOCH   = 463
BSTAR          = -.36328E-2
MEAN_MOTION_DOT = -.208548E-2
MEAN_MOTION_DDOT = 0

CCSDS_OMM_VERS = 2.0
CREATION_DATE  = 
ORIGINATOR     = 

OBJECT_NAME    = STARLINK-35928
OBJECT_ID      = 2025-265N
CENTER_NAME    = EARTH
REF_FRAME      = TEME
TIME_SYSTEM    = UTC
MEAN_ELEMENT_THEORY = SGP/SGP4

EPOCH          = 2025-12-10T12:00:02.998944
MEAN_MOTION    = 15.50637497
ECCENTRICITY   = .0001304
INCLINATION    = 43.0000
RA_OF_ASC_NODE = 67.0644
ARG_OF_PERICENTER = 280.7325
MEAN_ANOMALY   = 321.8810

EPHEMERIS_TYPE = 0
CLASSIFICATION_TYPE = U
NORAD_CAT_ID   = 66528
ELEMENT_SET_NO = 999
REV_AT_EPOCH   = 463
BSTAR          = -.26262E-2
MEAN_MOTION_DOT = -.151776E-2
MEAN_MOTION_DDOT = 0

CCSDS_OMM_VERS = 2.0
CREATION_DATE  = 
ORIGINATOR     = 

OBJECT_NAME    = STARLINK-35933
OBJECT_ID      = 2025-265P
CENTER_NAME    = EARTH
REF_FRAME      = TEME
TIME_SYSTEM    = UTC
MEAN_ELEMENT_THEORY = SGP/SGP4

EPOCH          = 2025-12-10T12:00:02.998944
MEAN_MOTION    = 15.50631758
ECCENTRICITY   = .0001486
INCLINATION    = 42.9997
RA_OF_ASC_NODE = 67.0597
ARG_OF_PERICENTER = 268.1217
MEAN_ANOMALY   = 336.4086

EPHEMERIS_TYPE = 0
CLASSIFICATION_TYPE = U
NORAD_CAT_ID   = 66529
ELEMENT_SET_NO = 999
REV_AT_EPOCH   = 463
BSTAR          = -.24593E-2
MEAN_MOTION_DOT = -.142296E-2
MEAN_MOTION_DDOT = 0

CCSDS_OMM_VERS = 2.0
CREATION_DATE  = 
ORIGINATOR     = 

OBJECT_NAME    = STARLINK-35961
OBJECT_ID      = 2025-265Q
CENTER_NAME    = EARTH
REF_FRAME      = TEME
TIME_SYSTEM    = UTC
MEAN_ELEMENT_THEORY = SGP/SGP4

EPOCH          = 2025-12-10T12:00:02.998944
MEAN_MOTION    = 15.50640333
ECCENTRICITY   = .000142
INCLINATION    = 42.9998
RA_OF_ASC_NODE = 67.0543
ARG_OF_PERICENTER = 274.3345
MEAN_ANOMALY   = 332.1154

EPHEMERIS_TYPE = 0
CLASSIFICATION_TYPE = U
NORAD_CAT_ID   = 66530
ELEMENT_SET_NO = 999
REV_AT_EPOCH   = 463
BSTAR          = -.26625E-2
MEAN_MOTION_DOT = -.153845E-2
MEAN_MOTION_DDOT = 0

CCSDS_OMM_VERS = 2.0
CREATION_DATE  = 
ORIGINATOR     = 

OBJECT_NAME    = STARLINK-35960
OBJECT_ID      = 2025-265R
CENTER_NAME    = EARTH
REF_FRAME      = TEME
TIME_SYSTEM    = UTC
MEAN_ELEMENT_THEORY = SGP/SGP4

EPOCH          = 2025-12-10T12:00:02.998944
MEAN_MOTION    = 15.50728487
ECCENTRICITY   = .0001173
INCLINATION    = 42.9998
RA_OF_ASC_NODE = 67.0505
ARG_OF_PERICENTER = 268.0862
MEAN_ANOMALY   = 340.2743

EPHEMERIS_TYPE = 0
CLASSIFICATION_TYPE = U
NORAD_CAT_ID   = 66531
ELEMENT_SET_NO = 999
REV_AT_EPOCH   = 463
BSTAR          = -.54253E-2
MEAN_MOTION_DOT = -.30805E-2
MEAN_MOTION_DDOT = 0

CCSDS_OMM_VERS = 2.0
CREATION_DATE  = 
ORIGINATOR     = 

OBJECT_NAME    = STARLINK-35914
OBJECT_ID      = 2025-265S
CENTER_NAME    = EARTH
REF_FRAME      = TEME
TIME_SYSTEM    = UTC
MEAN_ELEMENT_THEORY = SGP/SGP4

EPOCH          = 2025-12-10T12:00:02.998944
MEAN_MOTION    = 15.50698548
ECCENTRICITY   = .0001334
INCLINATION    = 42.9995
RA_OF_ASC_NODE = 67.0451
ARG_OF_PERICENTER = 274.9048
MEAN_ANOMALY   = 335.3703

EPHEMERIS_TYPE = 0
CLASSIFICATION_TYPE = U
NORAD_CAT_ID   = 66532
ELEMENT_SET_NO = 999
REV_AT_EPOCH   = 463
BSTAR          = -.45517E-2
MEAN_MOTION_DOT = -.259803E-2
MEAN_MOTION_DDOT = 0

CCSDS_OMM_VERS = 2.0
CREATION_DATE  = 
ORIGINATOR     = 

OBJECT_NAME    = STARLINK-35707
OBJECT_ID      = 2025-265T
CENTER_NAME    = EARTH
REF_FRAME      = TEME
TIME_SYSTEM    = UTC
MEAN_ELEMENT_THEORY = SGP/SGP4

EPOCH          = 2025-12-10T12:00:02.998944
MEAN_MOTION    = 15.50631822
ECCENTRICITY   = .0001418
INCLINATION    = 42.9996
RA_OF_ASC_NODE = 67.0403
ARG_OF_PERICENTER = 270.9164
MEAN_ANOMALY   = 341.2871

EPHEMERIS_TYPE = 0
CLASSIFICATION_TYPE = U
NORAD_CAT_ID   = 66533
ELEMENT_SET_NO = 999
REV_AT_EPOCH   = 463
BSTAR          = -.24159E-2
MEAN_MOTION_DOT = -.139832E-2
MEAN_MOTION_DDOT = 0

CCSDS_OMM_VERS = 2.0
CREATION_DATE  = 
ORIGINATOR     = 

OBJECT_NAME    = STARLINK-35976
OBJECT_ID      = 2025-265U
CENTER_NAME    = EARTH
REF_FRAME      = TEME
TIME_SYSTEM    = UTC
MEAN_ELEMENT_THEORY = SGP/SGP4

EPOCH          = 2025-12-10T12:00:02.998944
MEAN_MOTION    = 15.50642405
ECCENTRICITY   = .0001434
INCLINATION    = 42.9997
RA_OF_ASC_NODE = 67.0357
ARG_OF_PERICENTER = 270.8670
MEAN_ANOMALY   = 343.2510

EPHEMERIS_TYPE = 0
CLASSIFICATION_TYPE = U
NORAD_CAT_ID   = 66534
ELEMENT_SET_NO = 999
REV_AT_EPOCH   = 463
BSTAR          = -.27619E-2
MEAN_MOTION_DOT = -.159472E-2
MEAN_MOTION_DDOT = 0

CCSDS_OMM_VERS = 2.0
CREATION_DATE  = 
ORIGINATOR     = 

OBJECT_NAME    = STARLINK-35514
OBJECT_ID      = 2025-265V
CENTER_NAME    = EARTH
REF_FRAME      = TEME
TIME_SYSTEM    = UTC
MEAN_ELEMENT_THEORY = SGP/SGP4

EPOCH          = 2025-12-10T12:00:02.998944
MEAN_MOTION    = 15.50630460
ECCENTRICITY   = .0001381
INCLINATION    = 42.9997
RA_OF_ASC_NODE = 67.0310
ARG_OF_PERICENTER = 271.3142
MEAN_ANOMALY   = 344.7202

EPHEMERIS_TYPE = 0
CLASSIFICATION_TYPE = U
NORAD_CAT_ID   = 66535
ELEMENT_SET_NO = 999
REV_AT_EPOCH   = 463
BSTAR          = -.2305E-2
MEAN_MOTION_DOT = -.133529E-2
MEAN_MOTION_DDOT = 0

