STARLINK-35687          
1 66524U 25265J   25344.50003471 -.00231682  00000+0 -40609-2 0  9995
2 66524  42.9998  67.0832 0001999 285.8522 309.0987 15.50578756  4630
STARLINK-35975          
1 66525U 25265K   25344.50003471 -.00156080  00000+0 -27020-2 0  9996
2 66525  42.9995  67.0781 0001372 272.2219 324.6426 15.50641484  4639
STARLINK-35932          
1 66526U 25265L   25344.50003471 -.00276160  00000+0 -48468-2 0  9998
2 66526  42.9998  67.0742 0001342 274.3413 324.4312 15.50709195  4520
STARLINK-35935          
1 66527U 25265M   25344.50003471 -.00208548  00000+0 -36328-2 0  9996
2 66527  42.9995  67.0697 0001265 272.7018 327.9915 15.50668860  4636
STARLINK-35928          
1 66528U 25265N   25344.50003471 -.00151776  00000+0 -26262-2 0  9993
2 66528  43.0000  67.0644 0001304 280.7325 321.8810 15.50637497  4631
STARLINK-35933          
1 66529U 25265P   25344.50003471 -.00142296  00000+0 -24593-2 0  9996
2 66529  42.9997  67.0597 0001486 268.1217 336.4086 15.50631758  4634
STARLINK-35961          
1 66530U 25265Q   25344.50003471 -.00153845  00000+0 -26625-2 0  9998
2 66530  42.9998  67.0543 0001420 274.3345 332.1154 15.50640333  4635
STARLINK-35960          
1 66531U 25265R   25344.50003471 -.00308050  00000+0 -54253-2 0  9997
2 66531  42.9998  67.0505 0001173 268.0862 340.2743 15.50728487  4634
STARLINK-35914          
1 66532U 25265S   25344.50003471 -.00259803  00000+0 -45517-2 0  9992
2 66532  42.9995  67.0451 0001334 274.9048 335.3703 15.50698548  4638
STARLINK-35707          
1 66533U 25265T   25344.50003471 -.00139832  00000+0 -24159-2 0  9991
2 66533  42.9996  67.0403 0001418 270.9164 341.2871 15.50631822  4639
STARLINK-35976          
1 66534U 25265U   25344.50003471 -.00159472  00000+0 -27619-2 0  9998
2 66534  42.9997  67.0357 0001434 270.8670 343.2510 15.50642405  4639
STARLINK-35514          
1 66535U 25265V   25344.50003471 -.00133529  00000+0 -23050-2 0  9999
2 66535  42.9997  67.0310 0001381 271.3142 344.7202 15.50630460  4632
